[{"OBJECT_NAME":"STARLINK-1567","OBJECT_ID":"2020-055M","EPOCH":"2026-03-10T00:00:02.999808","MEAN_MOTION":15.18253947,"ECCENTRICITY":0.00014476,"INCLINATION":53.0874,"RA_OF_ASC_NODE":124.961,"ARG_OF_PERICENTER":74.8938,"MEAN_ANOMALY":22.5266,"EPHEMERIS_TYPE":0,"CLASSIFICATION_TYPE":"U","NORAD_CAT_ID":46038,"ELEMENT_SET_NO":999,"REV_AT_EPOCH":579,"BSTAR":0.068265395,"MEAN_MOTION_DOT":0.01557947,"MEAN_MOTION_DDOT":0},{"OBJECT_NAME":"SL-3 R\/B","OBJECT_ID":"1983-075B","EPOCH":"2026-03-09T22:44:04.814016","MEAN_MOTION":15.38425255,"ECCENTRICITY":0.00201513,"INCLINATION":97.6147,"RA_OF_ASC_NODE":73.5342,"ARG_OF_PERICENTER":224.8963,"MEAN_ANOMALY":135.0652,"EPHEMERIS_TYPE":0,"CLASSIFICATION_TYPE":"U","NORAD_CAT_ID":14208,"ELEMENT_SET_NO":999,"REV_AT_EPOCH":33019,"BSTAR":0.0003432682,"MEAN_MOTION_DOT":0.00013017,"MEAN_MOTION_DDOT":0}]
